{
  "generated_at": "2026-05-30T08:28:13+00:00",
  "source": "celestrak.org",
  "satellite_count": 9,
  "satellites": [
    {
      "id": "terra",
      "name": "TERRA",
      "platform": "EOS",
      "sensor": "MODIS",
      "swath_km": 2330,
      "color": "#39d0d8",
      "norad": 25994,
      "tle1": "1 25994U 99068A   26150.13492633  .00000489  00000+0  10849-3 0  9991",
      "tle2": "2 25994  97.9466 200.3959 0000887 306.9336  68.9650 14.61086825406974"
    },
    {
      "id": "aqua",
      "name": "AQUA",
      "platform": "EOS",
      "sensor": "MODIS",
      "swath_km": 2330,
      "color": "#2bb673",
      "norad": 27424,
      "tle1": "1 27424U 02022A   26150.13821895  .00001046  00000+0  21781-3 0  9998",
      "tle2": "2 27424  98.4268 119.0620 0001764  60.9237  71.4452 14.62126999280633"
    },
    {
      "id": "snpp",
      "name": "SUOMI NPP",
      "platform": "JPSS",
      "sensor": "VIIRS",
      "swath_km": 3000,
      "color": "#ff8c42",
      "norad": 37849,
      "tle1": "1 37849U 11061A   26150.15511480  .00000091  00000+0  64304-4 0  9999",
      "tle2": "2 37849  98.7950  91.1551 0002418  44.1430 315.9939 14.19513240755886"
    },
    {
      "id": "noaa20",
      "name": "NOAA 20",
      "platform": "JPSS",
      "sensor": "VIIRS",
      "swath_km": 3000,
      "color": "#ffaa00",
      "norad": 43013,
      "tle1": "1 43013U 17073A   26150.02728656  .00000077  00000+0  57424-4 0  9998",
      "tle2": "2 43013  98.7769  89.6518 0000860  36.8629 323.2606 14.19508049441893"
    },
    {
      "id": "noaa21",
      "name": "NOAA 21",
      "platform": "JPSS",
      "sensor": "VIIRS",
      "swath_km": 3000,
      "color": "#ff5a3a",
      "norad": 54234,
      "tle1": "1 54234U 22150A   26149.99036716  .00000074  00000+0  55920-4 0  9996",
      "tle2": "2 54234  98.7057  89.0856 0000644 213.8716 146.2419 14.19561772183961"
    },
    {
      "id": "sentinel2a",
      "name": "SENTINEL-2A",
      "platform": "Copernicus",
      "sensor": "MSI",
      "swath_km": 290,
      "color": "#b388ff",
      "norad": 40697,
      "tle1": "1 40697U 15028A   26150.17273895  .00000276  00000+0  12210-3 0  9991",
      "tle2": "2 40697  98.5691 225.2791 0001105  90.9579 269.1731 14.30818464571157"
    },
    {
      "id": "sentinel2b",
      "name": "SENTINEL-2B",
      "platform": "Copernicus",
      "sensor": "MSI",
      "swath_km": 290,
      "color": "#9d6dff",
      "norad": 42063,
      "tle1": "1 42063U 17013A   26150.16549331  .00000233  00000+0  10548-3 0  9991",
      "tle2": "2 42063  98.5698 225.1935 0001237  91.5352 268.5972 14.30811660482066"
    },
    {
      "id": "sentinel3a",
      "name": "SENTINEL-3A",
      "platform": "Copernicus",
      "sensor": "OLCI",
      "swath_km": 1270,
      "color": "#7a4fff",
      "norad": 41335,
      "tle1": "1 41335U 16011A   26150.19318328  .00000237  00000+0  11617-3 0  9994",
      "tle2": "2 41335  98.6253 217.8343 0001269 106.5143 253.6177 14.26734535535494"
    },
    {
      "id": "sentinel3b",
      "name": "SENTINEL-3B",
      "platform": "Copernicus",
      "sensor": "OLCI",
      "swath_km": 1270,
      "color": "#5e3bff",
      "norad": 43437,
      "tle1": "1 43437U 18039A   26150.16633115  .00000145  00000+0  78090-4 0  9999",
      "tle2": "2 43437  98.6252 217.9563 0001061  74.3927 285.7371 14.26736009421556"
    }
  ]
}